{
    "links": {
        "self": "http://www.neowsapp.com/rest/v1/neo/3283480?api_key=iIulBulltgU6a56xZRHN4H3l9WmuAYTsLGpBGhQ2"
    },
    "id": "3283480",
    "neo_reference_id": "3283480",
    "name": "(2005 NL1)",
    "designation": "2005 NL1",
    "nasa_jpl_url": "http://ssd.jpl.nasa.gov/sbdb.cgi?sstr=3283480",
    "absolute_magnitude_h": 21.4,
    "estimated_diameter": {
        "kilometers": {
            "estimated_diameter_min": 0.1394938229,
            "estimated_diameter_max": 0.3119176705
        },
        "meters": {
            "estimated_diameter_min": 139.4938229344,
            "estimated_diameter_max": 311.9176705226
        },
        "miles": {
            "estimated_diameter_min": 0.0866774163,
            "estimated_diameter_max": 0.1938165949
        },
        "feet": {
            "estimated_diameter_min": 457.6569140361,
            "estimated_diameter_max": 1023.3519701574
        }
    },
    "is_potentially_hazardous_asteroid": false,
    "close_approach_data": [
        {
            "close_approach_date": "1918-07-27",
            "close_approach_date_full": "1918-Jul-27 04:13",
            "epoch_date_close_approach": -1623095220000,
            "relative_velocity": {
                "kilometers_per_second": "20.4903713887",
                "kilometers_per_hour": "73765.3369992145",
                "miles_per_hour": "45834.9117593175"
            },
            "miss_distance": {
                "astronomical": "0.3822878545",
                "lunar": "148.7099754005",
                "kilometers": "57189448.760069915",
                "miles": "35535875.639058227"
            },
            "orbiting_body": "Earth"
        },
        {
            "close_approach_date": "1979-03-17",
            "close_approach_date_full": "1979-Mar-17 10:36",
            "epoch_date_close_approach": 290514960000,
            "relative_velocity": {
                "kilometers_per_second": "22.9281519785",
                "kilometers_per_hour": "82541.3471226644",
                "miles_per_hour": "51287.9831607467"
            },
            "miss_distance": {
                "astronomical": "0.4848219617",
                "lunar": "188.5957431013",
                "kilometers": "72528332.799541579",
                "miles": "45067016.2163246302"
            },
            "orbiting_body": "Earth"
        },
        {
            "close_approach_date": "2005-06-25",
            "close_approach_date_full": "2005-Jun-25 14:26",
            "epoch_date_close_approach": 1119709560000,
            "relative_velocity": {
                "kilometers_per_second": "9.332206964",
                "kilometers_per_hour": "33595.945070343",
                "miles_per_hour": "20875.2137577362"
            },
            "miss_distance": {
                "astronomical": "0.057549931",
                "lunar": "22.386923159",
                "kilometers": "8609347.09624697",
                "miles": "5349600.221349386"
            },
            "orbiting_body": "Earth"
        },
        {
            "close_approach_date": "2008-03-24",
            "close_approach_date_full": "2008-Mar-24 04:47",
            "epoch_date_close_approach": 1206334020000,
            "relative_velocity": {
                "kilometers_per_second": "19.4602942862",
                "kilometers_per_hour": "70057.0594304471",
                "miles_per_hour": "43530.7322888797"
            },
            "miss_distance": {
                "astronomical": "0.3809323999",
                "lunar": "148.1827035611",
                "kilometers": "56986675.639028213",
                "miles": "35409878.2642188194"
            },
            "orbiting_body": "Earth"
        },
        {
            "close_approach_date": "2034-07-29",
            "close_approach_date_full": "2034-Jul-29 03:20",
            "epoch_date_close_approach": 2037756000000,
            "relative_velocity": {
                "kilometers_per_second": "21.3057363224",
                "kilometers_per_hour": "76700.6507605921",
                "miles_per_hour": "47658.8015795468"
            },
            "miss_distance": {
                "astronomical": "0.4214183986",
                "lunar": "163.9317570554",
                "kilometers": "63043294.809370982",
                "miles": "39173286.9050922716"
            },
            "orbiting_body": "Earth"
        }
    ],
    "orbital_data": {
        "orbit_id": "15",
        "orbit_determination_date": "2017-04-06 09:10:48",
        "first_observation_date": "2005-07-03",
        "last_observation_date": "2005-08-27",
        "data_arc_in_days": 55,
        "observations_used": 63,
        "orbit_uncertainty": "6",
        "minimum_orbit_intersection": ".0568761",
        "jupiter_tisserand_invariant": "3.621",
        "epoch_osculation": "2459000.5",
        "eccentricity": ".5151452300973343",
        "semi_major_axis": "2.036312428435237",
        "inclination": "6.464569909956148",
        "ascending_node_longitude": "299.8120533181502",
        "orbital_period": "1061.365690948818",
        "perihelion_distance": ".9873157939389053",
        "perihelion_argument": "301.7948961788287",
        "aphelion_distance": "3.085309062931569",
        "perihelion_time": "2458829.342087490430",
        "mean_anomaly": "58.0543059087977",
        "mean_motion": ".3391856389084658",
        "equinox": "J2000",
        "orbit_class": {
            "orbit_class_type": "APO",
            "orbit_class_description": "Near-Earth asteroid orbits which cross the Earth’s orbit similar to that of 1862 Apollo",
            "orbit_class_range": "a (semi-major axis) > 1.0 AU; q (perihelion) < 1.017 AU"
        }
    },
    "is_sentry_object": false
}